IRIDIUM 132 [+]         
1 42961U 17061G   17346.26687972  .00000070  00000-0  18043-4 0  9992
2 42961  86.3997 244.3445 0002554  78.4966 281.6517 14.34217344  9213
